OSCAR 7 (AO-7)          
1 07530U 74089B   26182.33643674 -.00000038  00000+0  51364-4 0  9992
2 07530 101.9899 195.7305 0012654 103.9193 269.9561 12.53698345362294
PHASE 3B (AO-10)        
1 14129U 83058B   26180.99416899 -.00000150  00000+0  00000+0 0  9998
2 14129  25.9232 217.4494 6006519 119.1882 313.2024  2.05871195295751
UOSAT 2 (UO-11)         
1 14781U 84021B   26182.45071382  .00001660  00000+0  17428-3 0  9992
2 14781  97.8066 147.8667 0008734 129.4029 230.7964 14.90820365259259
LUSAT (LO-19)           
1 20442U 90005G   26182.34499695  .00000134  00000+0  64527-4 0  9999
2 20442  98.8845 204.5405 0011921 159.5755 200.5908 14.34127457904428
EYESAT A (AO-27)        
1 22825U 93061C   26182.61394035  .00000113  00000+0  59818-4 0  9997
2 22825  98.6876 250.0219 0009367  62.4356 297.7777 14.30946055709060
ITAMSAT (IO-26)         
1 22826U 93061D   26182.93856137  .00000117  00000+0  61125-4 0  9997
2 22826  98.6822 250.2654 0009674  46.2092 313.9890 14.31373426709429
RADIO ROSTO (RS15)      
1 23439U 94085A   26182.83837039 -.00000019  00000+0  67262-3 0  9993
2 23439  64.8179 279.5218 0156439   1.1663 358.9597 11.27583442297558
JAS-2 (FO-29)           
1 24278U 96046B   26182.80209383 -.00000027  00000+0  65644-5 0  9999
2 24278  98.5226  29.6712 0350807  58.6175 304.8786 13.53274940475144
TECHSAT 1B (GO-32)      
1 25397U 98043D   26182.95589189  .00000054  00000+0  43718-4 0  9998
2 25397  99.0073 176.0873 0001748 136.2433 223.8884 14.24431243453432
ISS (ZARYA)             
1 25544U 98067A   26182.50817465  .00006185  00000+0  11827-3 0  9996
2 25544  51.6311 229.1989 0004224 255.0896 104.9625 15.49503254573972
PCSAT (NO-44)           
1 26931U 01043C   26182.75697715  .00000092  00000+0  65129-4 0  9992
2 26931  67.0489 206.5876 0006017 265.5550  94.4864 14.31960800292531
SAUDISAT 1C (SO-50)     
1 27607U 02058C   26182.92283374  .00000977  00000+0  13244-3 0  9993
2 27607  64.5520  83.3935 0074908 259.7212  99.5442 14.83077352266640
CUTE-1 (CO-55)          
1 27844U 03031E   26182.92971394  .00000305  00000+0  15103-3 0  9995
2 27844  98.6736 191.3031 0010400 137.2748 222.9241 14.24344785193772
CUBESAT XI-IV (CO-57)   
1 27848U 03031J   26182.50387728  .00000247  00000+0  12755-3 0  9990
2 27848  98.6768 190.5840 0009878 155.7692 204.3953 14.23628338193413
MOZHAETS 4 (RS22)       
1 27939U 03042A   26182.95607021  .00001001  00000+0  16236-3 0  9990
2 27939  98.3464   7.7321 0010265 217.2986 246.7907 14.73493097217726
CUBESAT XI-V            
1 28895U 05043F   26182.94295542  .00001588  00000+0  25710-3 0  9992
2 28895  98.3000 338.8758 0014656 154.4297 205.7638 14.72672414103924
CUTE-1.7+APD II (CO-65) 
1 32785U 08021C   26182.89837735  .00006850  00000+0  43008-3 0  9991
2 32785  97.8281 164.6245 0008223 350.5158   9.5914 15.09593222987417
SEEDS II (CO-66)        
1 32791U 08021J   26182.95274746  .00022706  00000+0  70777-3 0  9993
2 32791  97.7519 181.5604 0001376 189.0732 171.0485 15.33260854989553
YUBILEINY (RS30)        
1 32953U 08025A   26182.90642476  .00000056  00000+0  33052-3 0  9990
2 32953  82.5044 346.2821 0018507 279.7976  80.1014 12.43180324821521
KKS-1 (KISEKI)          
1 33499U 09002H   26182.89659567  .00001454  00000+0  18499-3 0  9990
2 33499  98.1183 105.5719 0006524 237.6468 122.4114 14.83161466938376
SWISSCUBE               
1 35932U 09051B   26182.67303243  .00001045  00000+0  21581-3 0  9993
2 35932  98.4025  90.8133 0007016 156.6940 203.4580 14.62508928891275
BEESAT-1                
1 35933U 09051C   26182.96382967  .00000892  00000+0  18880-3 0  9993
2 35933  98.3951  90.7133 0005241 166.7581 193.3758 14.61744129891349
ITUPSAT1                
1 35935U 09051E   26182.28254693  .00000863  00000+0  18802-3 0  9996
2 35935  98.4035  89.1986 0007070 185.0409 175.0721 14.60461628890792
XIWANG-1 (HOPE-1)       
1 36122U 09072B   26182.91171113  .00000366  00000+0  10746-2 0  9999
2 36122 100.4032 136.5094 0007172 195.5414 164.5480 13.16441276794946
O/OREOS (USA 219)       
1 37224U 10062C   26182.32648406  .00002639  00000+0  25408-3 0  9990
2 37224  71.9707  48.3104 0013166  32.9496 327.2493 14.93804016118759
JUGNU                   
1 37839U 11058B   26182.78363549  .00000389  00000+0  63587-4 0  9991
2 37839  19.9591 219.7499 0018348 237.3711 278.2214 14.13780252761097
SRMSAT                  
1 37841U 11058D   26182.77623690  .00000384  00000+0  64524-4 0  9996
2 37841  19.9733 331.1680 0011804   4.9086  23.3871 14.11578614759889
STRAND-1                
1 39090U 13009E   26182.74616838  .00000302  00000+0  11576-3 0  9993
2 39090  98.3926   2.6224 0008571 179.3400 180.7800 14.37172065699151
ZACUBE-1 (TSHEPISOSAT)  
1 39417U 13066B   26182.93784358  .00003697  00000+0  28697-3 0  9995
2 39417  97.8041 145.3497 0042860 197.9442 162.0271 15.01269498682947
GOMX-1                  
1 39430U 13066Q   26182.89380536  .00001568  00000+0  24016-3 0  9991
2 39430  97.6470  22.4282 0129430  30.8177 330.0546 14.69508337672078
